[{"OBJECT_NAME":"STARLINK-36184","OBJECT_ID":"2025-293U","EPOCH":"2026-03-09T11:28:32.819232","MEAN_MOTION":14.98351122,"ECCENTRICITY":0.00031945,"INCLINATION":70.0004,"RA_OF_ASC_NODE":95.0902,"ARG_OF_PERICENTER":270.1874,"MEAN_ANOMALY":89.8919,"EPHEMERIS_TYPE":0,"CLASSIFICATION_TYPE":"U","NORAD_CAT_ID":67021,"ELEMENT_SET_NO":999,"REV_AT_EPOCH":1485,"BSTAR":0.00039681348,"MEAN_MOTION_DOT":4.647e-5,"MEAN_MOTION_DDOT":0},{"OBJECT_NAME":"VOLGA DEB","OBJECT_ID":"2019-039F","EPOCH":"2026-03-07T20:53:51.094464","MEAN_MOTION":14.96146064,"ECCENTRICITY":0.00076084,"INCLINATION":97.5888,"RA_OF_ASC_NODE":96.0833,"ARG_OF_PERICENTER":210.1052,"MEAN_ANOMALY":149.9734,"EPHEMERIS_TYPE":0,"CLASSIFICATION_TYPE":"U","NORAD_CAT_ID":44621,"ELEMENT_SET_NO":999,"REV_AT_EPOCH":36129,"BSTAR":0.00038662057,"MEAN_MOTION_DOT":4.299e-5,"MEAN_MOTION_DDOT":0}]
